Name,Street,City,State,Zip,Phone
Vasquez,368 Igebi Turnpike,Walterboro,FL,73301,(417) 692-5686
Harper,249 Hukif Avenue,Marcellus,SC,70760,(931) 681-5192
McBride,779 Voztag Place,Lovelaceville,ND,72535,(504) 525-6827
Massey,712 Nuad Drive,Bad Axe,CA,1119,(288) 711-5684
Wilkerson,21 Umiha Key,San Lucas,AR,86039,(426) 298-1385
Jennings,300 Isitep Terrace,Bluffs,AR,41624,(433) 799-9423
Pierce,125 Cupebi Plaza,Double Springs,KS,38898,(481) 570-4447
Johnston,158 Wihul Trail,Pinetops,OH,36050,(744) 568-1380
Hudson,506 Towret Path,Kykotsmovi Village,DE,84406,(488) 719-6389
Henry,511 Foku Circle,Tupper Lake,MN,29616,(904) 555-2080
Newton,49 Vawu Turnpike,Riverlea,AR,61735,(442) 378-4556
Steele,979 Evesu Circle,Gallina,AK,58145,(934) 650-2970
Paul,277 Werofi Terrace,South Beach,WY,22452,(736) 998-1080
Carr,580 Posdag Loop,Rake,MN,41201,(833) 640-3280
Cobb,840 Ogowu Drive,Coon Rapids,GA,28738,(210) 659-3707
Pittman,181 Warreh Ridge,North Spearfish,LA,11790,(746) 837-3434
Pittman,768 Hoag Pass,Carnot-Moon,OR,15927,(708) 959-6651
Knight,463 Usibo Loop,Summit Park,MN,18482,(213) 362-5889
Valdez,476 Enega Ridge,Park Ridge,ID,34288,(917) 898-7925
Padilla,512 Obaok Trail,Maxwell,NH,76408,(952) 259-1768
Hall,107 Jodjo Trail,Buck Meadows,MT,31592,(560) 859-1381
Sanders,663 Icwup View,Florida Ridge,DC,19960,(600) 775-9020
Todd,926 Hitot Heights,Le Sueur,IL,50918,(373) 219-6564
Larson,770 Jonfo Key,Prado Verde,IA,8705,(364) 791-9273
Carpenter,606 Janni Point,Destrehan,UT,1970,(248) 899-5795
Hawkins,416 Atle Place,Tuckerton,WA,15813,(831) 534-8755
Coleman,297 Jivnum Circle,Carrizales,MT,48944,(386) 830-2620
Lyons,916 Dajupi Center,Jackson Center,AR,50380,(218) 713-8624
Ortiz,397 Atne Path,California Hot Springs,MS,14848,(451) 249-7023
Bryan,806 Rilped Extension,Prices Fork,LA,54317,(845) 472-5261
Gibbs,146 Igud Way,Gillett,MI,47539,(516) 412-2696
Mason,322 Bimol Street,House,UT,4452,(336) 367-9392
Simpson,709 Wamac Path,Lake Buena Vista,MA,82983,(213) 770-3782
Wallace,843 Raku Path,Morehouse,CT,95560,(926) 473-3030
Drake,289 Sigav Square,Franklin Farm,MN,30052,(515) 434-6329
Tran,866 Iplen Boulevard,Lemoore,NE,3967,(871) 633-2000
Briggs,362 Ikiib Parkway,Walnut Park,IL,34983,(218) 924-8626
Mendez,30 Mokku Pike,Garrettsville,OK,79203,(766) 776-1619
Carr,966 Kolap Point,Sledge,WY,77869,(331) 674-9090
Kennedy,567 Zoswo Square,Keys,OK,20707,(378) 876-5248
Fletcher,669 Tije Manor,Paw Paw,KS,19536,(854) 695-6873
Guerrero,842 Ocpo Boulevard,Glen Park,NJ,7636,(976) 466-7030
Santiago,850 Cuwza Court,Coamo,VT,44940,(856) 206-4485
Parks,528 Luvul Circle,Hampton Beach,ND,60931,(466) 261-8425
Wolfe,906 Fulum Heights,The Lakes,NJ,57358,(546) 459-2101
Luna,774 Sibsam Way,Millcreek,FL,83592,(240) 683-8460
James,708 Duksiv Parkway,Onida,CA,51322,(366) 396-5396
Ford,758 Ulrar Lane,Algona,KS,78142,(388) 574-5012
Hunter,41 Egto Drive,North Washington,NC,95727,(707) 891-3529
Fitzgerald,638 Rerhad Pike,Nekoosa,AL,61614,(838) 801-1011
Williams,88 Kike Pass,Alamo,MA,61213,(267) 306-7015
Reynolds,507 Mavsol Court,South Chicago Heights,VT,44808,(640) 646-3785
Davidson,754 Kemi Lane,Casey,IL,85234,(610) 364-2664
McKinney,878 Uzorav View,Arbutus,RI,79463,(243) 972-2511
Massey,904 Taniku Heights,San Pierre,ID,853,(217) 321-8204
Benson,546 Bepe River,Tom Bean,MI,6238,(281) 532-3282
Wilkins,593 Tagad Mill,Woodcliff Lake,WI,95563,(628) 931-1457
Butler,922 Tudu Place,Cana,IA,70214,(576) 803-2296
Reid,602 Bujmos Glen,Plumerville,PA,93512,(339) 536-4064
Mathis,990 Fufim Circle,North Druid Hills,AZ,26094,(772) 212-4624
Pierce,791 Onro Mill,Grand Beach,WY,30909,(908) 537-4247
Burns,28 Ukazo Circle,Madera Acres,VT,97703,(882) 519-7428
Alexander,995 Nuwjip Parkway,Kenny Lake,WA,96102,(858) 496-3728
Cruz,290 Bohe Highway,West Monroe,DE,3070,(334) 998-3348
Neal,833 Ridjep Highway,Verde Village,NY,5109,(658) 749-5223
Lee,232 Nosa Pike,Carey,UT,22424,(808) 914-8000
Hodges,517 Fothu Square,Storden,TX,46324,(667) 806-9119
Gross,613 Biici Court,Sealy,TN,87894,(869) 513-6656
Kennedy,961 Fahbi Pass,Pleasanton,NC,92098,(663) 247-1052
Young,562 Pagigo Terrace,Umatilla,PA,80489,(502) 241-8383
Snyder,993 Gutehe Avenue,St. Vincent,NJ,9621,(255) 442-1620
Brady,711 Dumma Mill,Sarben,ID,43533,(521) 599-6072
Jones,427 Lifki Court,Eunice,OH,90853,(912) 822-5443
Bowen,434 Duhpo River,DeRidder,NJ,59092,(900) 851-9381
Howell,878 Savfoj Path,Lake of the Woods,DE,513,(558) 900-9339
Maldonado,943 Bicote Manor,Long Valley,SD,2989,(354) 416-6496
Bryan,496 Tocel Highway,Potlatch,UT,8485,(666) 228-9630
Rose,630 Wutoj Way,Shady Hills,FL,39745,(380) 542-6565
Fletcher,478 Jiajo Pass,East Tawas,DE,22344,(530) 305-4820
Christensen,887 Kuldur Highway,Bethlehem,KS,57376,(462) 982-4629
Matthews,697 Pitpi Manor,Suquamish,WV,83098,(236) 437-9152
Vargas,528 Gigu Plaza,North Fond du Lac,CA,66148,(677) 217-2928
Walters,737 Hevi Plaza,Nittany,MN,23656,(753) 855-3335
Myers,205 Gikkac Ridge,Buffalo Soapstone,TN,63694,(401) 408-1596
Potter,208 Nodlij Mill,New Pittsburg,MA,29724,(933) 736-5020
Barton,480 Woowi View,Nettleton,NJ,16394,(537) 722-9976
Mendez,722 Jukuf Mill,St. Anthony,WA,83052,(387) 942-3257
Perkins,266 Susik Turnpike,Green Camp,OR,54602,(843) 384-9823
Lawrence,700 Multa Manor,Hasbrouck Heights,MA,96051,(279) 499-8527
Potter,890 Rerdi Park,Purcellville,VA,82346,(913) 324-3783
Bryan,215 Sevuz Manor,Alianza,NC,44238,(569) 791-5723
Frazier,766 Kebgot Key,Lee Vining,UT,70530,(911) 733-3729
Cummings,486 Pajju Lane,Myrtle Creek,WI,5398,(833) 437-1237
Martin,58 Tini Loop,Gold Mountain,WY,11151,(480) 236-9836
McKenzie,8 Jutoc Road,Westview,OR,79116,(726) 972-5402
Moss,234 Ejiwi Junction,Pretty Bayou,AL,1217,(721) 945-9617
Nunez,987 Peziw Street,Brownlee,MI,63245,(744) 349-4809
Cooper,47 Saaca Way,Dacula,MO,20170,(329) 680-2968
Love,746 Elnu Pass,Frontier,MI,57341,(302) 646-5865
Perez,344 Vonrec Extension,Perez,IA,72221,(546) 259-7438
Mills,694 Sekra Grove,Duck,NH,15836,(212) 699-8482
Cole,44 Gohu Road,South Taft,AL,33130,(232) 379-3278
Klein,61 Mopcic Extension,Gene Autry,WI,22987,(885) 689-2160
Hall,935 Vokuf Avenue,Bergoo,OK,93323,(986) 542-3884
Tyler,875 Ashom View,Cokeburg,VT,23692,(362) 261-5952
Tran,776 Moul River,Walthill,MI,61442,(668) 286-3775
Tran,807 Paoka Plaza,Morongo Valley,CO,8020,(618) 585-6473
Alexander,370 Kipto Avenue,Middleburgh,ME,43777,(807) 997-1706
Rice,174 Ahoeha Street,Coal Center,VA,99449,(608) 745-4764
Higgins,412 Hazom Point,Kettleman City,KS,91637,(710) 731-6277
Buchanan,56 Edidum Way,Maud,TN,8399,(523) 638-9362
Todd,820 Etubez Trail,South Yarmouth,CA,52232,(906) 208-7211
Hamilton,568 Tate River,Cyril,OH,90071,(936) 582-2695
Gardner,468 Emecu Circle,Darbyville,WA,33426,(821) 913-2775
Stanley,142 Bocog Mill,Arnolds Park,CA,16853,(847) 673-6805
Castillo,880 Zifhu Square,Cape Charles,MO,91624,(902) 947-1403
Ramsey,891 Ineiz Drive,Mount Ida,KY,84788,(784) 407-2335
Oliver,850 Coopa Extension,Ford Heights,MT,47420,(603) 814-9590
Thompson,706 Somvu Boulevard,Hopkins,MD,38346,(982) 279-4349
Carlson,914 Hanup Pass,Rye,CO,3483,(763) 568-1505
Willis,236 Akjed River,Holland Patent,MN,15947,(867) 655-7442
Jacobs,619 Leceb Extension,Gazelle,AL,59149,(559) 603-6059
Alexander,129 Ifoaca Park,Jenks,WI,33062,(885) 291-4083
Franklin,26 Sadhi Glen,Valley Wells,AL,6531,(952) 854-5650
Cruz,241 Ijueve Center,Concrete,SC,83830,(904) 397-6295
Robinson,833 Vewu Circle,Pueblito del Carmen,TN,929,(603) 766-8582
Austin,162 Mowlum Ridge,Ramtown,MN,67374,(937) 980-5939
Terry,680 Givel Heights,North Pole,MI,552,(831) 899-1200
Perry,515 Eccin Place,Belle Plaine,MD,35083,(557) 812-2517
Herrera,143 Gogaf Plaza,Salamonia,SD,3215,(885) 984-8441
Walker,731 Codi Grove,McKittrick,KY,37114,(765) 601-5108
Waters,907 Busid Pass,Villa Verde,OR,63119,(953) 547-3616
Fowler,627 Leuf Terrace,Wayzata,HI,74126,(681) 326-3338
Thomas,50 Awno Pike,Rockwood,MA,75232,(931) 913-2821
Goodman,144 Nurrow Junction,Pine Bend,AL,44577,(416) 283-4347
Martinez,203 Jurod Highway,Benkelman,WY,56954,(585) 627-7980
McGuire,12 Weve Park,South Henderson,TX,16988,(564) 526-5521
Bishop,268 Cepcel Loop,Highland Falls,MO,96853,(237) 749-5492
Lambert,102 Fanege Boulevard,Clarksville,NV,75652,(549) 617-5484
Powell,603 Ginuw Road,Dugway,NE,80017,(401) 634-2350
McDaniel,446 Beclic Heights,Pine Mountain Club,KY,15538,(367) 315-1591
Santiago,348 Firfup Way,Riverhead,VT,92161,(262) 896-3711
Bass,38 Ikedid Ridge,East Jordan,LA,55699,(946) 254-9608
Griffin,975 Pilpu Heights,Scenic Oaks,HI,65886,(856) 425-5496
Collins,113 Satfa River,Croton-on-Hudson,IN,47285,(419) 409-6568
Paul,806 Damro Mill,Sholes,MN,32721,(708) 209-3725
Lyons,886 Hahro Park,Sugarloaf Village,MD,58592,(421) 490-5374
Mathis,512 Cotba Boulevard,Ledyard,RI,44854,(232) 384-2254
Webb,760 Fuda Loop,Grundy,FL,88195,(405) 458-7086
Clayton,708 Pagvap River,Lorraine,AK,8781,(629) 698-7464
Flowers,824 Fevo Circle,Duck,KS,74426,(384) 600-4466
Garner,213 Tujju Heights,South Taft,MS,49704,(384) 209-8997
Ramsey,509 Nagve Pass,Gene Autry,NH,6664,(210) 258-3154
Lindsey,353 Fovima Pass,Bergoo,NH,15656,(268) 529-6386
Evans,137 Jostaf Grove,Cokeburg,MI,53295,(774) 405-9198
Maldonado,68 Tepref Loop,Walthill,KS,34185,(328) 691-8349
Richards,475 Isueh Manor,Morongo Valley,KY,62191,(257) 460-8480
Warren,400 Leic Pike,Middleburgh,NY,77142,(453) 817-7016
Walker,983 Bunos Parkway,Coal Center,RI,2535,(335) 627-6788
McBride,990 Cahmi Park,Kettleman City,DC,75659,(939) 889-9290
Graham,362 Hivfev Court,Maud,WY,38042,(442) 486-8949
Alvarez,129 Sueb Lane,South Yarmouth,MS,61053,(807) 746-6487
Patrick,855 Umuif Place,Cyril,MS,82293,(955) 975-9530
Parker,921 Nibhid River,Darbyville,CA,29815,(210) 430-6469
Bush,218 Zecki Path,Arnolds Park,OR,98264,(550) 205-7327
Cross,59 Ofahi Circle,Cape Charles,AR,13689,(726) 302-4647
Ortiz,605 Peti Trail,Mount Ida,FL,42591,(303) 330-9990
Long,882 Mokrok Way,Ford Heights,KS,66485,(802) 698-3670
Lee,615 Petrep Way,Hopkins,MO,45935,(701) 627-2987
Murphy,334 Owozej Center,Rye,RI,82722,(680) 622-8949
Knight,680 Koznak Terrace,Holland Patent,HI,69328,(438) 775-9548
Mendoza,316 Sakal View,Gazelle,NV,29860,(467) 994-2038
Gross,766 Zudra Mill,Jenks,NE,24295,(547) 914-6985
Reid,818 Dalwi Extension,Valley Wells,ID,1325,(557) 272-2084
Edwards,787 Doslu Road,Concrete,MS,28283,(843) 537-2019
Schultz,933 Rinmew Highway,Pueblito del Carmen,NH,86207,(828) 345-3105
Hampton,956 Ulawo Highway,Ramtown,HI,36938,(707) 671-1640
Rios,38 Duzmem Trail,North Pole,TX,11783,(700) 361-1705
Crawford,565 Lofdab Highway,Belle Plaine,CT,11582,(913) 932-4884
Waters,62 Wulri Loop,Salamonia,CO,77242,(604) 624-4244
Hart,679 Ojki Mill,McKittrick,IN,98397,(908) 744-4738
McCormick,534 Jebo Avenue,Villa Verde,DC,47546,(357) 464-9698
Ramsey,10 Vejwos Mill,Wayzata,AL,97297,(683) 896-4331
Barnett,45 Jawom Junction,Rockwood,AL,56147,(453) 213-4714
Lawson,141 Gefo Place,Pine Bend,TX,70013,(253) 300-7799
Fitzgerald,521 Foot Circle,Benkelman,MD,1717,(386) 262-6096
Zimmerman,301 Ifwo Extension,South Henderson,NM,62658,(537) 498-6007
Flores,180 Cukbur River,Highland Falls,UT,93775,(970) 779-7319
Hardy,790 Fuel Circle,Clarksville,VT,39201,(962) 338-3395
Stone,398 Zacgif Point,Dugway,MT,14330,(582) 857-8932
Jones,276 Liwuw Way,Pine Mountain Club,MN,43136,(651) 328-4987
Summers,867 Rincer Grove,Riverhead,CT,5568,(733) 911-8867
Webb,990 Oheku Manor,East Jordan,NY,41752,(338) 664-5214
Martinez,384 Jafvet Square,Scenic Oaks,AR,27328,(814) 711-2918
Boone,103 Nappim Ridge,Croton-on-Hudson,ND,27703,(454) 594-3193
Blair,475 Zuwu Highway,Sholes,AZ,14695,(468) 354-3108
Bowman,450 Lodze Drive,Sugarloaf Village,KS,97177,(759) 855-5406
Hunter,490 Puew Turnpike,Ledyard,UT,26722,(313) 970-2796
Jensen,102 Opevob River,Grundy,AZ,82092,(889) 276-8631
Dunn,290 Enamo Road,Lorraine,MS,51716,(329) 516-9143
Wilkerson,75 Fivi View,Enoch,OR,4316,(533) 704-3769
Roberts,302 Wuoh Turnpike,Evansville,UT,99945,(731) 205-6262
Sanchez,88 Fidmih Lane,Radford,IN,74797,(287) 529-1883
Robinson,938 Adeeb Key,Tohatchi,DE,99384,(701) 236-8369
Salazar,571 Magdog Parkway,Southwest City,MD,41472,(644) 834-7718
Wolfe,704 Japinu Terrace,Central Garage,MS,39076,(949) 976-4410
Little,482 Nocom Lane,Jacumba,WI,21554,(388) 491-7580
Schwartz,496 Ozoju Pass,Colusa,KY,55296,(930) 834-1093
Burns,340 Rufbo Road,Pinetown,WA,95030,(725) 991-2898
Turner,906 Relo Path,Huntingburg,NJ,89680,(542) 859-4886
Thompson,254 Fopo Pass,Carrizo,IA,89716,(953) 485-2478
Guerrero,75 Jilit Highway,Belington,NY,74107,(400) 327-5676
Hansen,452 Berin Place,Gandy,ID,31013,(502) 289-4534
Poole,936 Majzef Drive,Calumet Park,NJ,93998,(728) 534-1643
Holt,963 Gized Manor,Oceanside,FL,77563,(605) 476-1418
Vaughn,417 Ufces Avenue,Salmon Creek,NV,67810,(948) 553-9313
Peterson,435 Pavjab Trail,Pine Apple,WA,9944,(301) 976-5076
Dean,296 Duco Terrace,New Hebron,OR,85999,(528) 689-4143
Reynolds,975 Limdu Key,Benton,KS,93880,(967) 894-1007
Lambert,39 Idepiv Drive,Lower Allen,NC,79620,(876) 344-6208
Beck,757 Hihdop Heights,Kings Park,TX,23330,(412) 843-2141
Page,334 Davdal Lane,Carmen,WI,850,(387) 576-3234
Willis,551 Izohop Street,Sylvan,OK,65525,(634) 954-5017
Parks,943 Hokate Park,Cane Beds,MD,53892,(274) 827-1312
Singleton,333 Vufsi Boulevard,Cold Bay,ND,27244,(742) 561-8125
Gutierrez,939 Futta Terrace,McEwensville,CO,57306,(864) 370-8315
Drake,322 Dotcab Point,Missouri Valley,MO,89261,(762) 662-9394
Fields,301 Kacdan Ridge,Snow Shoe,RI,20501,(801) 930-8671
Wise,501 Liele Drive,Constantine,MD,66708,(479) 587-4961
Kelley,297 Ileno Highway,Deltona,WV,94388,(446) 299-7599
Abbott,358 Poosa Pass,Chevak,ME,23421,(589) 432-8765
Tate,37 Gase Loop,Mattituck,PA,4149,(542) 917-4980
Perkins,91 Jumir Highway,Francisco,SC,17405,(362) 365-9634
Hanson,263 Werese Manor,Granbury,HI,90679,(777) 347-7130
Watson,228 Ladjej Pass,Chiloquin,MO,45476,(553) 336-8433
Elliott,285 Maga Court,Bunkie,NM,23190,(958) 945-8155
Perez,347 Ukuta Manor,Chokio,FL,72363,(815) 555-4056
Lewis,508 Guavu Pike,Bozeman,AZ,93454,(970) 625-1985
Francis,988 Bocso Avenue,Omak,NV,76579,(615) 278-1217
Dixon,862 Ijoci View,Greenwood Lake,VT,87225,(786) 436-5619
Carson,339 Nijoj Turnpike,Remerton,NE,52865,(717) 577-3533
Barton,503 Uwaneh Street,Grayland,ID,6681,(433) 765-7149
Luna,723 Koen Boulevard,Northdale,WV,32394,(717) 975-7984
Schmidt,34 Nueg Square,Hale Center,MN,95199,(425) 820-3591
Jensen,142 Fitzup Avenue,Plentywood,AZ,54044,(225) 304-5066
Doyle,906 Pamin Mill,Fair Bluff,MO,18225,(214) 271-7154
Briggs,91 Riwadu Pike,Wikieup,AZ,12244,(736) 321-9741
Poole,670 Saap Pass,Overgaard,VT,90047,(345) 458-5550
Miller,49 Tozkub Avenue,Fort Lewis,MD,73248,(327) 463-2300
McGee,755 Ucage Park,Newport Center,ME,24577,(577) 563-7959