Name,Street,State,Zip,Phone
Vasquez,368 Igebi Turnpike,FL,73301,(417) 692-5686
Harper,249 Hukif Avenue,SC,70760,(931) 681-5192
McBride,779 Voztag Place,ND,72535,(504) 525-6827
Massey,712 Nuad Drive,CA,1119,(288) 711-5684
Wilkerson,21 Umiha Key,AR,86039,(426) 298-1385
Jennings,300 Isitep Terrace,AR,41624,(433) 799-9423
Pierce,125 Cupebi Plaza,KS,38898,(481) 570-4447
Johnston,158 Wihul Trail,OH,36050,(744) 568-1380
Hudson,506 Towret Path,DE,84406,(488) 719-6389
Henry,511 Foku Circle,MN,29616,(904) 555-2080
Newton,49 Vawu Turnpike,AR,61735,(442) 378-4556
Steele,979 Evesu Circle,AK,58145,(934) 650-2970
Paul,277 Werofi Terrace,WY,22452,(736) 998-1080
Carr,580 Posdag Loop,MN,41201,(833) 640-3280
Cobb,840 Ogowu Drive,GA,28738,(210) 659-3707
Pittman,181 Warreh Ridge,LA,11790,(746) 837-3434
Pittman,768 Hoag Pass,OR,15927,(708) 959-6651
Knight,463 Usibo Loop,MN,18482,(213) 362-5889
Valdez,476 Enega Ridge,ID,34288,(917) 898-7925
Padilla,512 Obaok Trail,NH,76408,(952) 259-1768
Hall,107 Jodjo Trail,MT,31592,(560) 859-1381
Sanders,663 Icwup View,DC,19960,(600) 775-9020
Todd,926 Hitot Heights,IL,50918,(373) 219-6564
Larson,770 Jonfo Key,IA,8705,(364) 791-9273
Carpenter,606 Janni Point,UT,1970,(248) 899-5795
Hawkins,416 Atle Place,WA,15813,(831) 534-8755
Coleman,297 Jivnum Circle,MT,48944,(386) 830-2620
Lyons,916 Dajupi Center,AR,50380,(218) 713-8624
Ortiz,397 Atne Path,MS,14848,(451) 249-7023
Bryan,806 Rilped Extension,LA,54317,(845) 472-5261
Gibbs,146 Igud Way,MI,47539,(516) 412-2696
Mason,322 Bimol Street,UT,4452,(336) 367-9392
Simpson,709 Wamac Path,MA,82983,(213) 770-3782
Wallace,843 Raku Path,CT,95560,(926) 473-3030
Drake,289 Sigav Square,MN,30052,(515) 434-6329
Tran,866 Iplen Boulevard,NE,3967,(871) 633-2000
Briggs,362 Ikiib Parkway,IL,34983,(218) 924-8626
Mendez,30 Mokku Pike,OK,79203,(766) 776-1619
Carr,966 Kolap Point,WY,77869,(331) 674-9090
Kennedy,567 Zoswo Square,OK,20707,(378) 876-5248
Fletcher,669 Tije Manor,KS,19536,(854) 695-6873
Guerrero,842 Ocpo Boulevard,NJ,7636,(976) 466-7030
Santiago,850 Cuwza Court,VT,44940,(856) 206-4485
Parks,528 Luvul Circle,ND,60931,(466) 261-8425
Wolfe,906 Fulum Heights,NJ,57358,(546) 459-2101
Luna,774 Sibsam Way,FL,83592,(240) 683-8460
James,708 Duksiv Parkway,CA,51322,(366) 396-5396
Ford,758 Ulrar Lane,KS,78142,(388) 574-5012
Hunter,41 Egto Drive,NC,95727,(707) 891-3529
Fitzgerald,638 Rerhad Pike,AL,61614,(838) 801-1011
Williams,88 Kike Pass,MA,61213,(267) 306-7015
Reynolds,507 Mavsol Court,VT,44808,(640) 646-3785
Davidson,754 Kemi Lane,IL,85234,(610) 364-2664
McKinney,878 Uzorav View,RI,79463,(243) 972-2511
Massey,904 Taniku Heights,ID,853,(217) 321-8204
Benson,546 Bepe River,MI,6238,(281) 532-3282
Wilkins,593 Tagad Mill,WI,95563,(628) 931-1457
Butler,922 Tudu Place,IA,70214,(576) 803-2296
Reid,602 Bujmos Glen,PA,93512,(339) 536-4064
Mathis,990 Fufim Circle,AZ,26094,(772) 212-4624
Pierce,791 Onro Mill,WY,30909,(908) 537-4247
Burns,28 Ukazo Circle,VT,97703,(882) 519-7428
Alexander,995 Nuwjip Parkway,WA,96102,(858) 496-3728
Cruz,290 Bohe Highway,DE,3070,(334) 998-3348
Neal,833 Ridjep Highway,NY,5109,(658) 749-5223
Lee,232 Nosa Pike,UT,22424,(808) 914-8000
Hodges,517 Fothu Square,TX,46324,(667) 806-9119
Gross,613 Biici Court,TN,87894,(869) 513-6656
Kennedy,961 Fahbi Pass,NC,92098,(663) 247-1052
Young,562 Pagigo Terrace,PA,80489,(502) 241-8383
Snyder,993 Gutehe Avenue,NJ,9621,(255) 442-1620
Brady,711 Dumma Mill,ID,43533,(521) 599-6072
Jones,427 Lifki Court,OH,90853,(912) 822-5443
Bowen,434 Duhpo River,NJ,59092,(900) 851-9381
Howell,878 Savfoj Path,DE,513,(558) 900-9339
Maldonado,943 Bicote Manor,SD,2989,(354) 416-6496
Bryan,496 Tocel Highway,UT,8485,(666) 228-9630
Rose,630 Wutoj Way,FL,39745,(380) 542-6565
Fletcher,478 Jiajo Pass,DE,22344,(530) 305-4820
Christensen,887 Kuldur Highway,KS,57376,(462) 982-4629
Matthews,697 Pitpi Manor,WV,83098,(236) 437-9152
Vargas,528 Gigu Plaza,CA,66148,(677) 217-2928
Walters,737 Hevi Plaza,MN,23656,(753) 855-3335
Myers,205 Gikkac Ridge,TN,63694,(401) 408-1596
Potter,208 Nodlij Mill,MA,29724,(933) 736-5020
Barton,480 Woowi View,NJ,16394,(537) 722-9976
Mendez,722 Jukuf Mill,WA,83052,(387) 942-3257
Perkins,266 Susik Turnpike,OR,54602,(843) 384-9823
Lawrence,700 Multa Manor,MA,96051,(279) 499-8527
Potter,890 Rerdi Park,VA,82346,(913) 324-3783
Bryan,215 Sevuz Manor,NC,44238,(569) 791-5723
Frazier,766 Kebgot Key,UT,70530,(911) 733-3729
Cummings,486 Pajju Lane,WI,5398,(833) 437-1237
Martin,58 Tini Loop,WY,11151,(480) 236-9836
McKenzie,8 Jutoc Road,OR,79116,(726) 972-5402
Moss,234 Ejiwi Junction,AL,1217,(721) 945-9617
Nunez,987 Peziw Street,MI,63245,(744) 349-4809
Cooper,47 Saaca Way,MO,20170,(329) 680-2968
Love,746 Elnu Pass,MI,57341,(302) 646-5865
Perez,344 Vonrec Extension,IA,72221,(546) 259-7438
Mills,694 Sekra Grove,NH,15836,(212) 699-8482
Cole,44 Gohu Road,AL,33130,(232) 379-3278
Klein,61 Mopcic Extension,WI,22987,(885) 689-2160
Hall,935 Vokuf Avenue,OK,93323,(986) 542-3884
Tyler,875 Ashom View,VT,23692,(362) 261-5952
Tran,776 Moul River,MI,61442,(668) 286-3775
Tran,807 Paoka Plaza,CO,8020,(618) 585-6473
Alexander,370 Kipto Avenue,ME,43777,(807) 997-1706
Rice,174 Ahoeha Street,VA,99449,(608) 745-4764
Higgins,412 Hazom Point,KS,91637,(710) 731-6277
Buchanan,56 Edidum Way,TN,8399,(523) 638-9362
Todd,820 Etubez Trail,CA,52232,(906) 208-7211
Hamilton,568 Tate River,OH,90071,(936) 582-2695
Gardner,468 Emecu Circle,WA,33426,(821) 913-2775
Stanley,142 Bocog Mill,CA,16853,(847) 673-6805
Castillo,880 Zifhu Square,MO,91624,(902) 947-1403
Ramsey,891 Ineiz Drive,KY,84788,(784) 407-2335
Oliver,850 Coopa Extension,MT,47420,(603) 814-9590
Thompson,706 Somvu Boulevard,MD,38346,(982) 279-4349
Carlson,914 Hanup Pass,CO,3483,(763) 568-1505
Willis,236 Akjed River,MN,15947,(867) 655-7442
Jacobs,619 Leceb Extension,AL,59149,(559) 603-6059
Alexander,129 Ifoaca Park,WI,33062,(885) 291-4083
Franklin,26 Sadhi Glen,AL,6531,(952) 854-5650
Cruz,241 Ijueve Center,SC,83830,(904) 397-6295
Robinson,833 Vewu Circle,TN,929,(603) 766-8582
Austin,162 Mowlum Ridge,MN,67374,(937) 980-5939
Terry,680 Givel Heights,MI,552,(831) 899-1200
Perry,515 Eccin Place,MD,35083,(557) 812-2517
Herrera,143 Gogaf Plaza,SD,3215,(885) 984-8441
Walker,731 Codi Grove,KY,37114,(765) 601-5108
Waters,907 Busid Pass,OR,63119,(953) 547-3616
Fowler,627 Leuf Terrace,HI,74126,(681) 326-3338
Thomas,50 Awno Pike,MA,75232,(931) 913-2821
Goodman,144 Nurrow Junction,AL,44577,(416) 283-4347
Martinez,203 Jurod Highway,WY,56954,(585) 627-7980
McGuire,12 Weve Park,TX,16988,(564) 526-5521
Bishop,268 Cepcel Loop,MO,96853,(237) 749-5492
Lambert,102 Fanege Boulevard,NV,75652,(549) 617-5484
Powell,603 Ginuw Road,NE,80017,(401) 634-2350
McDaniel,446 Beclic Heights,KY,15538,(367) 315-1591
Santiago,348 Firfup Way,VT,92161,(262) 896-3711
Bass,38 Ikedid Ridge,LA,55699,(946) 254-9608
Griffin,975 Pilpu Heights,HI,65886,(856) 425-5496
Collins,113 Satfa River,IN,47285,(419) 409-6568
Paul,806 Damro Mill,MN,32721,(708) 209-3725
Lyons,886 Hahro Park,MD,58592,(421) 490-5374
Mathis,512 Cotba Boulevard,RI,44854,(232) 384-2254
Webb,760 Fuda Loop,FL,88195,(405) 458-7086
Clayton,708 Pagvap River,AK,8781,(629) 698-7464
Flowers,824 Fevo Circle,KS,74426,(384) 600-4466
Garner,213 Tujju Heights,MS,49704,(384) 209-8997
Ramsey,509 Nagve Pass,NH,6664,(210) 258-3154
Lindsey,353 Fovima Pass,NH,15656,(268) 529-6386
Evans,137 Jostaf Grove,MI,53295,(774) 405-9198
Maldonado,68 Tepref Loop,KS,34185,(328) 691-8349
Richards,475 Isueh Manor,KY,62191,(257) 460-8480
Warren,400 Leic Pike,NY,77142,(453) 817-7016
Walker,983 Bunos Parkway,RI,2535,(335) 627-6788
McBride,990 Cahmi Park,DC,75659,(939) 889-9290
Graham,362 Hivfev Court,WY,38042,(442) 486-8949
Alvarez,129 Sueb Lane,MS,61053,(807) 746-6487
Patrick,855 Umuif Place,MS,82293,(955) 975-9530
Parker,921 Nibhid River,CA,29815,(210) 430-6469
Bush,218 Zecki Path,OR,98264,(550) 205-7327
Cross,59 Ofahi Circle,AR,13689,(726) 302-4647
Ortiz,605 Peti Trail,FL,42591,(303) 330-9990
Long,882 Mokrok Way,KS,66485,(802) 698-3670
Lee,615 Petrep Way,MO,45935,(701) 627-2987
Murphy,334 Owozej Center,RI,82722,(680) 622-8949
Knight,680 Koznak Terrace,HI,69328,(438) 775-9548
Mendoza,316 Sakal View,NV,29860,(467) 994-2038
Gross,766 Zudra Mill,NE,24295,(547) 914-6985
Reid,818 Dalwi Extension,ID,1325,(557) 272-2084
Edwards,787 Doslu Road,MS,28283,(843) 537-2019
Schultz,933 Rinmew Highway,NH,86207,(828) 345-3105
Hampton,956 Ulawo Highway,HI,36938,(707) 671-1640
Rios,38 Duzmem Trail,TX,11783,(700) 361-1705
Crawford,565 Lofdab Highway,CT,11582,(913) 932-4884
Waters,62 Wulri Loop,CO,77242,(604) 624-4244
Hart,679 Ojki Mill,IN,98397,(908) 744-4738
McCormick,534 Jebo Avenue,DC,47546,(357) 464-9698
Ramsey,10 Vejwos Mill,AL,97297,(683) 896-4331
Barnett,45 Jawom Junction,AL,56147,(453) 213-4714
Lawson,141 Gefo Place,TX,70013,(253) 300-7799
Fitzgerald,521 Foot Circle,MD,1717,(386) 262-6096
Zimmerman,301 Ifwo Extension,NM,62658,(537) 498-6007
Flores,180 Cukbur River,UT,93775,(970) 779-7319
Hardy,790 Fuel Circle,VT,39201,(962) 338-3395
Stone,398 Zacgif Point,MT,14330,(582) 857-8932
Jones,276 Liwuw Way,MN,43136,(651) 328-4987
Summers,867 Rincer Grove,CT,5568,(733) 911-8867
Webb,990 Oheku Manor,NY,41752,(338) 664-5214
Martinez,384 Jafvet Square,AR,27328,(814) 711-2918
Boone,103 Nappim Ridge,ND,27703,(454) 594-3193
Blair,475 Zuwu Highway,AZ,14695,(468) 354-3108
Bowman,450 Lodze Drive,KS,97177,(759) 855-5406
Hunter,490 Puew Turnpike,UT,26722,(313) 970-2796
Jensen,102 Opevob River,AZ,82092,(889) 276-8631
Dunn,290 Enamo Road,MS,51716,(329) 516-9143
Wilkerson,75 Fivi View,OR,4316,(533) 704-3769
Roberts,302 Wuoh Turnpike,UT,99945,(731) 205-6262
Sanchez,88 Fidmih Lane,IN,74797,(287) 529-1883
Robinson,938 Adeeb Key,DE,99384,(701) 236-8369
Salazar,571 Magdog Parkway,MD,41472,(644) 834-7718
Wolfe,704 Japinu Terrace,MS,39076,(949) 976-4410
Little,482 Nocom Lane,WI,21554,(388) 491-7580
Schwartz,496 Ozoju Pass,KY,55296,(930) 834-1093
Burns,340 Rufbo Road,WA,95030,(725) 991-2898
Turner,906 Relo Path,NJ,89680,(542) 859-4886
Thompson,254 Fopo Pass,IA,89716,(953) 485-2478
Guerrero,75 Jilit Highway,NY,74107,(400) 327-5676
Hansen,452 Berin Place,ID,31013,(502) 289-4534
Poole,936 Majzef Drive,NJ,93998,(728) 534-1643
Holt,963 Gized Manor,FL,77563,(605) 476-1418
Vaughn,417 Ufces Avenue,NV,67810,(948) 553-9313
Peterson,435 Pavjab Trail,WA,9944,(301) 976-5076
Dean,296 Duco Terrace,OR,85999,(528) 689-4143
Reynolds,975 Limdu Key,KS,93880,(967) 894-1007
Lambert,39 Idepiv Drive,NC,79620,(876) 344-6208
Beck,757 Hihdop Heights,TX,23330,(412) 843-2141
Page,334 Davdal Lane,WI,850,(387) 576-3234
Willis,551 Izohop Street,OK,65525,(634) 954-5017
Parks,943 Hokate Park,MD,53892,(274) 827-1312
Singleton,333 Vufsi Boulevard,ND,27244,(742) 561-8125
Gutierrez,939 Futta Terrace,CO,57306,(864) 370-8315
Drake,322 Dotcab Point,MO,89261,(762) 662-9394
Fields,301 Kacdan Ridge,RI,20501,(801) 930-8671
Wise,501 Liele Drive,MD,66708,(479) 587-4961
Kelley,297 Ileno Highway,WV,94388,(446) 299-7599
Abbott,358 Poosa Pass,ME,23421,(589) 432-8765
Tate,37 Gase Loop,PA,4149,(542) 917-4980
Perkins,91 Jumir Highway,SC,17405,(362) 365-9634
Hanson,263 Werese Manor,HI,90679,(777) 347-7130
Watson,228 Ladjej Pass,MO,45476,(553) 336-8433
Elliott,285 Maga Court,NM,23190,(958) 945-8155
Perez,347 Ukuta Manor,FL,72363,(815) 555-4056
Lewis,508 Guavu Pike,AZ,93454,(970) 625-1985
Francis,988 Bocso Avenue,NV,76579,(615) 278-1217
Dixon,862 Ijoci View,VT,87225,(786) 436-5619
Carson,339 Nijoj Turnpike,NE,52865,(717) 577-3533
Barton,503 Uwaneh Street,ID,6681,(433) 765-7149
Luna,723 Koen Boulevard,WV,32394,(717) 975-7984
Schmidt,34 Nueg Square,MN,95199,(425) 820-3591
Jensen,142 Fitzup Avenue,AZ,54044,(225) 304-5066
Doyle,906 Pamin Mill,MO,18225,(214) 271-7154
Briggs,91 Riwadu Pike,AZ,12244,(736) 321-9741
Poole,670 Saap Pass,VT,90047,(345) 458-5550
Miller,49 Tozkub Avenue,MD,73248,(327) 463-2300
McGee,755 Ucage Park,ME,24577,(577) 563-7959